OBJECT_NAME,OBJECT_ID,EPOCH,MEAN_MOTION,ECCENTRICITY,INCLINATION,RA_OF_ASC_NODE,ARG_OF_PERICENTER,MEAN_ANOMALY,EPHEMERIS_TYPE,CLASSIFICATION_TYPE,NORAD_CAT_ID,ELEMENT_SET_NO,REV_AT_EPOCH,BSTAR,MEAN_MOTION_DOT,MEAN_MOTION_DDOT
NORBI,2020-068J,2026-07-04T14:25:34.416192,15.49233731,.00071744,97.8622,203.1090,177.3839,182.7449,0,U,46494,999,31890,.81941539E-3,.44837E-3,0
SALSAT,2020-068K,2026-07-04T11:27:58.980672,15.30057656,.00082082,97.8855,189.5980,234.4468,125.6006,0,U,46495,999,31800,.47010278E-3,.13616E-3,0
ICEYE-X6,2020-068M,2026-07-04T14:46:41.503296,15.04616762,.00080119,98.0969,180.1213,41.3829,318.8002,0,U,46497,999,31585,.29835522E-3,.4126E-4,0
NETSAT-4,2020-068U,2026-07-04T11:48:23.874336,15.44467151,.00035817,97.8602,195.1298,239.8890,120.2002,0,U,46504,999,31844,.68812274E-3,.31861E-3,0
NETSAT-3,2020-068V,2026-07-04T10:42:59.647680,15.43298067,.00029169,97.8653,193.2756,267.2104,92.8809,0,U,46505,999,31834,.59535548E-3,.26466E-3,0
NETSAT-1,2020-068W,2026-07-04T11:27:27.969120,15.35055802,.00029211,97.8750,187.4340,326.4876,33.6181,0,U,46506,999,31795,.68050326E-3,.23105E-3,0
NETSAT-2,2020-068X,2026-07-04T12:10:21.275616,15.46783339,.00013607,97.8616,195.1057,284.8566,75.2531,0,U,46507,999,31841,.91860957E-3,.46144E-3,0
TIANQI-6,2020-076D,2026-07-04T15:00:11.466144,15.07308404,.00107661,34.9999,301.4353,320.6765,39.3163,0,U,46810,999,31121,.39093032E-3,.6009E-4,0
KSM1-C,2020-081B,2026-07-04T14:52:08.355360,15.27043715,.00027689,36.8967,311.3004,344.9444,15.1223,0,U,46906,999,31183,.47621896E-3,.12862E-3,0
KSM1-D,2020-081C,2026-07-04T15:28:12.371232,15.24981981,.00031117,36.8981,320.4932,22.4074,337.6810,0,U,46907,999,31176,.33193337E-3,.8385E-4,0
KSM1-A,2020-081H,2026-07-04T15:09:46.289664,15.26242121,.00019484,36.8981,313.7508,85.6904,274.4068,0,U,46912,999,31184,.33041309E-3,.8672E-4,0
R2,2020-081J,2026-07-04T15:49:27.230880,15.25704982,.00068978,36.8980,313.6549,68.2848,291.8635,0,U,46913,999,31465,.55946162E-3,.14535E-3,0
KSM1-B,2020-081K,2026-07-04T15:36:42.311808,15.24769886,.00044766,36.9037,321.1048,56.0314,304.0860,0,U,46914,999,31485,.36053544E-3,.906E-4,0
GONETS-M 20,2020-091A,2026-07-04T15:14:09.787200,12.42893981,.00218817,82.5059,291.5908,140.8565,219.4102,0,U,47227,999,25324,-.96667348E-4,-.3E-7,0
GONETS-M 21,2020-091B,2026-07-04T14:36:38.890080,12.42887095,.00155288,82.4984,290.3032,153.6508,206.5365,0,U,47228,999,25323,-.35062375E-4,.5E-7,0
GONETS-M 22,2020-091C,2026-07-04T13:57:48.179232,12.42893119,.00228015,82.5041,291.2267,136.5386,223.7496,0,U,47229,999,25318,-.25055596E-3,-.25E-6,0
CUBEL,2021-006AM,2026-07-04T02:30:18.736128,15.41837149,.00079637,97.2315,235.5336,113.4734,246.7351,0,U,47448,999,30236,.65306068E-3,.27694E-3,0
ARKTIKA-M 1,2021-016A,2026-06-29T22:50:46.732128,2.00617895,.72928178,63.2520,55.7907,269.9910,14.5481,0,U,47719,999,3904,0,-.281E-5,0
STARLINK-2342,2021-021Z,2026-07-04T16:00:03.000096,15.87938242,.00055917,53.1526,60.0484,239.6806,204.4385,0,U,47883,999,601,.16684367E-2,.487399E-2,0
GRUS-1B,2021-022C,2026-07-04T16:02:50.444160,14.98753007,.00147331,97.5345,68.2863,259.0263,100.9303,0,U,47934,999,28851,.78447148E-4,.889E-5,0
UNISAT-7,2021-022P,2026-07-03T23:32:44.942208,15.40933948,.00094505,97.3871,90.0840,27.5972,332.5774,0,U,47945,999,29244,.4239527E-3,.17401E-3,0
GLOBAL-9,2021-023G,2026-07-04T14:59:04.478496,15.47258376,.00026521,44.9798,152.4719,79.2507,280.8682,0,U,47971,999,29764,.75497499E-3,.39176E-3,0
AII-BRAVO,2021-034C,2026-07-04T03:00:04.749408,15.03602866,.00053766,97.5596,239.6513,191.2441,168.8665,0,U,48270,999,28216,.33382821E-3,.4506E-4,0
TYVAK-182A,2021-034D,2026-07-04T14:27:44.629632,15.06334870,.00042483,97.5706,244.2186,267.8756,92.1985,0,U,48271,999,28245,.55884216E-3,.8163E-4,0
CSS (TIANHE),2021-035A,2026-07-03T05:28:28.025760,15.57904594,.00028803,41.4672,224.3616,262.1202,97.9309,0,U,48274,999,29621,.10677817E-3,.7882E-4,0
TYVAK-0130,2021-041BF,2026-07-04T07:35:52.901664,15.27819787,.00087565,52.9964,306.5230,219.7215,140.3142,0,U,48606,999,28300,.33749927E-3,.8959E-4,0
HAIYANG-2D,2021-043A,2026-07-04T15:26:17.272608,13.83372636,.00115571,65.9986,261.2410,266.9062,93.0684,0,U,48621,999,25896,.58261361E-4,-.17E-6,0
2021-050D,2021-050D,2026-07-04T14:39:15.338880,15.23517530,.0005272,97.3329,261.2514,186.6706,173.4462,0,U,48843,999,28161,.5166146E-3,.1228E-3,0
