NORBI                   
1 46494U 20068J   26185.60109278  .00044837  00000+0  81942-3 0  9990
2 46494  97.8622 203.1090 0007174 177.3839 182.7449 15.49233731318909
SALSAT                  
1 46495U 20068K   26185.47776598  .00013616  00000+0  47010-3 0  9990
2 46495  97.8855 189.5980 0008208 234.4468 125.6006 15.30057656318001
ICEYE-X6                
1 46497U 20068M   26185.61575814  .00004126  00000+0  29836-3 0  9998
2 46497  98.0969 180.1213 0008011  41.3829 318.8002 15.04616762315858
NETSAT-4                
1 46504U 20068U   26185.49194299  .00031861  00000+0  68812-3 0  9990
2 46504  97.8602 195.1298 0003581 239.8890 120.2002 15.44467151318449
NETSAT-3                
1 46505U 20068V   26185.44652370  .00026466  00000+0  59536-3 0  9993
2 46505  97.8653 193.2756 0002916 267.2104  92.8809 15.43298067318343
NETSAT-1                
1 46506U 20068W   26185.47740705  .00023105  00000+0  68050-3 0  9995
2 46506  97.8750 187.4340 0002921 326.4876  33.6181 15.35055802317957
NETSAT-2                
1 46507U 20068X   26185.50719069  .00046144  00000+0  91861-3 0  9993
2 46507  97.8616 195.1057 0001360 284.8566  75.2531 15.46783339318417
TIANQI-6                
1 46810U 20076D   26185.62513271  .00006009  00000+0  39093-3 0  9994
2 46810  34.9999 301.4353 0010766 320.6765  39.3163 15.07308404311217
KSM1-C                  
1 46906U 20081B   26185.61954115  .00012862  00000+0  47622-3 0  9992
2 46906  36.8967 311.3004 0002768 344.9444  15.1223 15.27043715311838
KSM1-D                  
1 46907U 20081C   26185.64458763  .00008385  00000+0  33193-3 0  9997
2 46907  36.8981 320.4932 0003111  22.4074 337.6810 15.24981981311765
KSM1-A                  
1 46912U 20081H   26185.63178576  .00008672  00000+0  33041-3 0  9994
2 46912  36.8981 313.7508 0001948  85.6904 274.4068 15.26242121311844
R2                      
1 46913U 20081J   26185.65934295  .00014535  00000+0  55946-3 0  9998
2 46913  36.8980 313.6549 0006897  68.2848 291.8635 15.25704982314652
KSM1-B                  
1 46914U 20081K   26185.65048972  .00009060  00000+0  36054-3 0  9993
2 46914  36.9037 321.1048 0004476  56.0314 304.0860 15.24769886314851
GONETS-M 20             
1 47227U 20091A   26185.63483550 -.00000003  00000+0 -96667-4 0  9992
2 47227  82.5059 291.5908 0021881 140.8565 219.4102 12.42893981253248
GONETS-M 21             
1 47228U 20091B   26185.60878345  .00000005  00000+0 -35062-4 0  9993
2 47228  82.4984 290.3032 0015528 153.6508 206.5365 12.42887095253236
GONETS-M 22             
1 47229U 20091C   26185.58180763 -.00000025  00000+0 -25056-3 0  9995
2 47229  82.5041 291.2267 0022801 136.5386 223.7496 12.42893119253182
CUBEL                   
1 47448U 21006AM  26185.10438352  .00027694  00000+0  65306-3 0  9994
2 47448  97.2315 235.5336 0007963 113.4734 246.7351 15.41837149302366
ARKTIKA-M 1             
1 47719U 21016A   26180.95192977 -.00000281  00000+0  00000+0 0  9994
2 47719  63.2520  55.7907 7292817 269.9910  14.5481  2.00617895 39040
STARLINK-2342           
1 47883U 21021Z   26185.66670139  .00487399  00000+0  16684-2 0  9992
2 47883  53.1526  60.0484 0005591 239.6806 204.4385 15.87938242  6012
GRUS-1B                 
1 47934U 21022C   26185.66863940  .00000889  00000+0  78447-4 0  9996
2 47934  97.5345  68.2863 0014733 259.0263 100.9303 14.98753007288514
UNISAT-7                
1 47945U 21022P   26184.98107572  .00017401  00000+0  42395-3 0  9994
2 47945  97.3871  90.0840 0009450  27.5972 332.5774 15.40933948292445
GLOBAL-9                
1 47971U 21023G   26185.62435739  .00039176  00000+0  75497-3 0  9997
2 47971  44.9798 152.4719 0002652  79.2507 280.8682 15.47258376297645
AII-BRAVO               
1 48270U 21034C   26185.12505497  .00004506  00000+0  33383-3 0  9993
2 48270  97.5596 239.6513 0005376 191.2441 168.8665 15.03602866282162
TYVAK-182A              
1 48271U 21034D   26185.60259988  .00008163  00000+0  55884-3 0  9991
2 48271  97.5706 244.2186 0004248 267.8756  92.1985 15.06334870282456
CSS (TIANHE)            
1 48274U 21035A   26184.22810215  .00007882  00000+0  10678-3 0  9997
2 48274  41.4672 224.3616 0002880 262.1202  97.9309 15.57904594296214
TYVAK-0130              
1 48606U 21041BF  26185.31658451  .00008959  00000+0  33750-3 0  9998
2 48606  52.9964 306.5230 0008756 219.7215 140.3142 15.27819787283006
HAIYANG-2D              
1 48621U 21043A   26185.64325547 -.00000017  00000+0  58261-4 0  9993
2 48621  65.9986 261.2410 0011557 266.9062  93.0684 13.83372636258964
2021-050D               
1 48843U 21050D   26185.61059420  .00012280  00000+0  51661-3 0  9998
2 48843  97.3329 261.2514 0005272 186.6706 173.4462 15.23517530281610
